{
"type": "FeatureCollection",
"name": "wards",
"crs": { "type": "name", "properties": { "name": "urn:ogc:def:crs:OGC:1.3:CRS84" } },
"features": [
{ "type": "Feature", "properties": { "WARD": 8 }, "geometry": { "type": "Polygon", "coordinates": [ [ [ -76.99391635814753, 38.877707879395018 ], [ -77.003503788745462, 38.880523854626233 ], [ -77.005617112601286, 38.880517139640247 ], [ -77.00416107608406, 38.876489034588985 ], [ -77.009100175377441, 38.876477050479963 ], [ -77.00907346211639, 38.869875857831445 ], [ -77.005851865162668, 38.86856250829031 ], [ -77.009115580937632, 38.863423899940173 ], [ -77.032199092276599, 38.850659945496545 ], [ -77.032538151278217, 38.846834300346245 ], [ -77.034645828258007, 38.840052224385481 ], [ -77.036806257047147, 38.839412773680372 ], [ -77.040052765085662, 38.839284595472662 ], [ -77.042982071527476, 38.839773523297922 ], [ -77.043361390375196, 38.840557748992879 ], [ -77.044684782775107, 38.840222675918888 ], [ -77.046067741659797, 38.84118099793708 ], [ -77.047900884828323, 38.841266561001184 ], [ -77.0474783119938, 38.840647042241905 ], [ -77.045890129572967, 38.840115548157549 ], [ -77.046504177334626, 38.839931172334374 ], [ -77.045368356093903, 38.838509094316763 ], [ -77.045054455581948, 38.836092427023921 ], [ -77.045594832232325, 38.835846015984991 ], [ -77.045054243824794, 38.835756862002853 ], [ -77.044241324326563, 38.833540100663058 ], [ -77.044450829993167, 38.833359851803394 ], [ -77.044492513712669, 38.833159938127416 ], [ -77.043830159986641, 38.833367473488167 ], [ -77.043287221733777, 38.831457521403678 ], [ -77.04269411531051, 38.831115418191715 ], [ -77.04193835616266, 38.831492786595632 ], [ -77.042580257023559, 38.833316227625268 ], [ -77.04187953518273, 38.833706547600563 ], [ -77.039137357921305, 38.832066878065888 ], [ -77.037847686760486, 38.830164355141136 ], [ -77.038812202075761, 38.824648638019589 ], [ -77.041053306729424, 38.823354010739138 ], [ -77.040720075887052, 38.822106381273521 ], [ -77.039577517049906, 38.82147969417197 ], [ -77.039967500299042, 38.82065423133966 ], [ -77.038849975518914, 38.81925269986948 ], [ -77.039124833950893, 38.818879918093344 ], [ -77.038129097222594, 38.815596384610053 ], [ -77.036139995758575, 38.814812495483849 ], [ -77.03918531704123, 38.800590967264355 ], [ -77.039022885702821, 38.791644351256487 ], [ -76.961774622685851, 38.851942038450005 ], [ -76.963018227407588, 38.852170568609488 ], [ -76.966548187019711, 38.855893737382871 ], [ -76.968042220975221, 38.858251661368719 ], [ -76.968148950430148, 38.86022588672278 ], [ -76.970699357511549, 38.864002163515259 ], [ -76.970173005711445, 38.866782027115015 ], [ -76.970938590754898, 38.868742810792931 ], [ -76.970968190451842, 38.873311701682447 ], [ -76.972230168411571, 38.872726102026348 ], [ -76.976297129583642, 38.8748868526975 ], [ -76.977975600035009, 38.876857155919808 ], [ -76.984369702869373, 38.874699215770356 ], [ -76.990125832058567, 38.871434505397424 ], [ -76.991412504239094, 38.873641111948608 ], [ -76.991537990613452, 38.877583524691893 ], [ -76.993411079732866, 38.87799538026465 ], [ -76.99391635814753, 38.877707879395018 ] ] ] } },
{ "type": "Feature", "properties": { "WARD": 2 }, "geometry": { "type": "Polygon", "coordinates": [ [ [ -77.034889300427096, 38.880060180026234 ], [ -77.032024292991409, 38.884085967176937 ], [ -77.031953901157735, 38.887575005426513 ], [ -77.015180289151786, 38.887574066068467 ], [ -77.015185095983114, 38.891464532999834 ], [ -77.019901722310877, 38.892766454998466 ], [ -77.019903495265297, 38.894418813419087 ], [ -77.018936742395738, 38.894810265619171 ], [ -77.018929217478288, 38.901131745344671 ], [ -77.021917304575908, 38.902109143232323 ], [ -77.021921354857156, 38.902946625162933 ], [ -77.014778132761037, 38.905369265339708 ], [ -77.018111242500709, 38.914653494906766 ], [ -77.020660401689227, 38.915745873142441 ], [ -77.020872083827015, 38.914093976919332 ], [ -77.031953714279766, 38.914101579116114 ], [ -77.031953020644778, 38.917005578377498 ], [ -77.041225935662922, 38.917015619593947 ], [ -77.046168323327535, 38.914386787435355 ], [ -77.046397935367949, 38.916184138867315 ], [ -77.047571600660063, 38.918399014243711 ], [ -77.04883478883491, 38.918946695129662 ], [ -77.050217122452324, 38.921305894974445 ], [ -77.051222035504722, 38.919780357881663 ], [ -77.054665737220901, 38.91988645613835 ], [ -77.055336317582316, 38.91900216208429 ], [ -77.058198132680488, 38.917683510418442 ], [ -77.05908642553041, 38.918321232921222 ], [ -77.067313945346783, 38.918678566591879 ], [ -77.067593236891966, 38.917516393454733 ], [ -77.068754349442116, 38.916973504362815 ], [ -77.06938480499656, 38.91773334504537 ], [ -77.069412537072239, 38.916607737143153 ], [ -77.071619501647248, 38.916331831188145 ], [ -77.074874371430283, 38.916531667665609 ], [ -77.074889145660208, 38.91687510100725 ], [ -77.075720650932723, 38.916862926361226 ], [ -77.075727672367208, 38.917426753519024 ], [ -77.081711059104975, 38.917436784639996 ], [ -77.08056317033089, 38.915038976785745 ], [ -77.079087011020732, 38.91370084142649 ], [ -77.078811603657115, 38.912758664851559 ], [ -77.079464000551965, 38.912637312999358 ], [ -77.077640262929961, 38.90951348998135 ], [ -77.077886516480646, 38.906748564263786 ], [ -77.078317478446948, 38.906745924986346 ], [ -77.078289313381291, 38.902377233416686 ], [ -77.073368306570615, 38.901125373780403 ], [ -77.07058709437301, 38.901193352871118 ], [ -77.067757685455206, 38.899559325840862 ], [ -77.067228711844152, 38.897168270787233 ], [ -77.063786463061859, 38.890262310787413 ], [ -77.064417737618427, 38.889581201168411 ], [ -77.064080838024339, 38.888320663680567 ], [ -77.058948658451584, 38.880679029713242 ], [ -77.054715184486867, 38.880119776864731 ], [ -77.051768234300354, 38.876927013465341 ], [ -77.051422622189278, 38.87613676924822 ], [ -77.051686993085468, 38.873912838622005 ], [ -77.050289539790541, 38.871708821960723 ], [ -77.0491824094929, 38.871293915891137 ], [ -77.046752113187353, 38.871855777578865 ], [ -77.046225710284162, 38.872385501215845 ], [ -77.047039040622508, 38.875159944667395 ], [ -77.045699956606029, 38.875560629528088 ], [ -77.043810496577521, 38.874242471402916 ], [ -77.039278409551159, 38.878900396962315 ], [ -77.034889300427096, 38.880060180026234 ] ] ] } },
{ "type": "Feature", "properties": { "WARD": 4 }, "geometry": { "type": "Polygon", "coordinates": [ [ [ -77.040966493015517, 38.99596803651135 ], [ -77.071739971513722, 38.971932780734434 ], [ -77.070143227227987, 38.969704957236786 ], [ -77.065125834471687, 38.958485593210781 ], [ -77.059567834514368, 38.957631024376546 ], [ -77.057483431506341, 38.956743762745432 ], [ -77.056016927492365, 38.958799169569076 ], [ -77.056202878740891, 38.961020607428907 ], [ -77.051446055717946, 38.96194623369157 ], [ -77.047215243763546, 38.960393499726344 ], [ -77.045186721502034, 38.960578601271273 ], [ -77.043443363810468, 38.961371484270906 ], [ -77.041805456733897, 38.960149777864835 ], [ -77.040566769498639, 38.959827808605432 ], [ -77.042148180650585, 38.957713370521283 ], [ -77.042146422170461, 38.954739652402019 ], [ -77.044667716699493, 38.952308374819026 ], [ -77.045507578719437, 38.950689894523222 ], [ -77.04708168184078, 38.949584586136936 ], [ -77.046851450956083, 38.948229112768139 ], [ -77.045574587849217, 38.947775879448614 ], [ -77.044474355995916, 38.948600281617054 ], [ -77.044091715484839, 38.947889853415987 ], [ -77.045978384949208, 38.94551256132997 ], [ -77.047836078855468, 38.945679009647968 ], [ -77.049921497173159, 38.943576234061076 ], [ -77.051319286762634, 38.941422016691995 ], [ -77.051202392196203, 38.940378186913826 ], [ -77.052139900284885, 38.938138850512054 ], [ -77.051868463096639, 38.937617039465501 ], [ -77.048082628042735, 38.93719507895208 ], [ -77.047791239816235, 38.935750546261197 ], [ -77.048299483059182, 38.934811987462851 ], [ -77.04516139128495, 38.935954089631039 ], [ -77.041119110734016, 38.936230154677432 ], [ -77.036447092300889, 38.938238510775022 ], [ -77.036448999829275, 38.937434852890789 ], [ -77.033857818189958, 38.93738401468196 ], [ -77.025200376136027, 38.935125136612179 ], [ -77.024299831850385, 38.936336295235762 ], [ -77.017343226124666, 38.937931823290093 ], [ -77.01522441410853, 38.939812870465659 ], [ -77.012150426493463, 38.943826513972745 ], [ -77.008955653168385, 38.945968702397977 ], [ -77.008595682655724, 38.947010771497233 ], [ -77.009048370182782, 38.954823109441556 ], [ -77.003349766151288, 38.956066201165783 ], [ -77.002251892397354, 38.956816787105261 ], [ -77.000277332317935, 38.955301618235353 ], [ -76.997630291386017, 38.957214139376902 ], [ -76.991435039795576, 38.957303536057019 ], [ -77.040966493015517, 38.99596803651135 ] ] ] } },
{ "type": "Feature", "properties": { "WARD": 5 }, "geometry": { "type": "Polygon", "coordinates": [ [ [ -76.991435039795576, 38.957303536057019 ], [ -76.997630291386017, 38.957214139376902 ], [ -77.000277332317935, 38.955301618235353 ], [ -77.002251892397354, 38.956816787105261 ], [ -77.003349766151288, 38.956066201165783 ], [ -77.009048370182782, 38.954823109441556 ], [ -77.008772498861589, 38.9462244614447 ], [ -77.012150426493463, 38.943826513972745 ], [ -77.01522441410853, 38.939812870465659 ], [ -77.017188336167479, 38.938046341629338 ], [ -77.019035171751284, 38.937406015878565 ], [ -77.019166489837957, 38.934191111965958 ], [ -77.017959959095549, 38.929202953087049 ], [ -77.018243021406803, 38.928520619631968 ], [ -77.014781941890618, 38.926445142502686 ], [ -77.012144670045785, 38.926289782650642 ], [ -77.012150637742309, 38.921314125904487 ], [ -77.014937009723837, 38.920675833275844 ], [ -77.014273351342155, 38.914996136395587 ], [ -77.017782217276476, 38.913772593122481 ], [ -77.014778132761037, 38.905369265339708 ], [ -77.004595067844804, 38.908904883363967 ], [ -76.984224206362242, 38.900214190463828 ], [ -76.969639358585326, 38.897721156176779 ], [ -76.961911265520911, 38.897071064640876 ], [ -76.962151141906617, 38.899838142543501 ], [ -76.959844190696117, 38.902587804626208 ], [ -76.95720893522244, 38.907467144480862 ], [ -76.954299317649699, 38.911155681129962 ], [ -76.953498873628845, 38.9143872876922 ], [ -76.952415289503108, 38.914824296337144 ], [ -76.946387682331576, 38.915117249878868 ], [ -76.941861811384356, 38.918543063352395 ], [ -76.991435039795576, 38.957303536057019 ] ] ] } },
{ "type": "Feature", "properties": { "WARD": 6 }, "geometry": { "type": "Polygon", "coordinates": [ [ [ -77.00907346211639, 38.869875857831445 ], [ -77.009100175377441, 38.876477050479963 ], [ -77.00416107608406, 38.876489034588985 ], [ -77.005617112601286, 38.880517139640247 ], [ -77.003503788745462, 38.880523854626233 ], [ -76.99368455810145, 38.8776360724329 ], [ -76.993411079732866, 38.87799538026465 ], [ -76.991537990613452, 38.877583524691893 ], [ -76.991412504239094, 38.873641111948608 ], [ -76.990125832058567, 38.871434505397424 ], [ -76.983235729578709, 38.875194340344244 ], [ -76.973420221179637, 38.878381671842646 ], [ -76.970970639352217, 38.881428258574267 ], [ -76.976469594478644, 38.881439143795077 ], [ -76.976469161380848, 38.882752557821334 ], [ -76.979000781297799, 38.882981068580179 ], [ -76.983658366016499, 38.881086880962307 ], [ -76.983609848641933, 38.90016232190208 ], [ -77.004595067844804, 38.908904883363967 ], [ -77.021921354857156, 38.902946625162933 ], [ -77.021917304575908, 38.902109143232323 ], [ -77.018929217478288, 38.901131745344671 ], [ -77.018936742395738, 38.894810265619171 ], [ -77.019903495265297, 38.894418813419087 ], [ -77.019901722310877, 38.892766454998466 ], [ -77.015185095983114, 38.891464532999834 ], [ -77.015180289151786, 38.887574066068467 ], [ -77.031953901157735, 38.887575005426513 ], [ -77.032163488190889, 38.883447315385872 ], [ -77.034323058749706, 38.880481956902649 ], [ -77.039187053625653, 38.878965288093433 ], [ -77.043810496577521, 38.874242471402916 ], [ -77.039952183646207, 38.870524067004858 ], [ -77.038284118263419, 38.867427084099184 ], [ -77.037742049412088, 38.865191552420868 ], [ -77.038254068998867, 38.864035425790483 ], [ -77.042163916388034, 38.863765538393132 ], [ -77.042765266836781, 38.863379849467641 ], [ -77.04035896539537, 38.862381942604934 ], [ -77.039740249178479, 38.863248494516171 ], [ -77.038023777165435, 38.863246723941963 ], [ -77.037628938841806, 38.861335895737049 ], [ -77.036795440468723, 38.86111158144508 ], [ -77.035073440634406, 38.859369341945069 ], [ -77.032864959809729, 38.855085126040088 ], [ -77.032199092276599, 38.850659945496545 ], [ -77.009115580937632, 38.863423899940173 ], [ -77.005851865162668, 38.86856250829031 ], [ -77.00907346211639, 38.869875857831445 ] ] ] } },
{ "type": "Feature", "properties": { "WARD": 3 }, "geometry": { "type": "Polygon", "coordinates": [ [ [ -77.0580817725277, 38.956759411657245 ], [ -77.059341644278476, 38.957578981547876 ], [ -77.065125834471687, 38.958485593210781 ], [ -77.070143227227987, 38.969704957236786 ], [ -77.071739971513722, 38.971932780734434 ], [ -77.119776525858938, 38.934297963320617 ], [ -77.11751863713188, 38.932103398168557 ], [ -77.116008043051892, 38.928164488991612 ], [ -77.112667001262906, 38.924659826394311 ], [ -77.106847849329284, 38.919959160104263 ], [ -77.10415078382222, 38.915946399229057 ], [ -77.103068849032937, 38.912753811053442 ], [ -77.097780777361692, 38.908503443005209 ], [ -77.093473289832218, 38.905835181054456 ], [ -77.087599179284297, 38.903197131541738 ], [ -77.08278809308942, 38.902270977237286 ], [ -77.078289313381291, 38.902377233416686 ], [ -77.078317478446948, 38.906745924986346 ], [ -77.077886516480646, 38.906748564263786 ], [ -77.077640262929961, 38.90951348998135 ], [ -77.079464000551965, 38.912637312999358 ], [ -77.078811603657115, 38.912758664851559 ], [ -77.079087011020732, 38.91370084142649 ], [ -77.08056317033089, 38.915038976785745 ], [ -77.081711059104975, 38.917436784639996 ], [ -77.075727672367208, 38.917426753519024 ], [ -77.075720650932723, 38.916862926361226 ], [ -77.074889145660208, 38.91687510100725 ], [ -77.074874371430283, 38.916531667665609 ], [ -77.071619501647248, 38.916331831188145 ], [ -77.069412537072239, 38.916607737143153 ], [ -77.06938480499656, 38.91773334504537 ], [ -77.068754349442116, 38.916973504362815 ], [ -77.067593236891966, 38.917516393454733 ], [ -77.067313945346783, 38.918678566591879 ], [ -77.05908642553041, 38.918321232921222 ], [ -77.058198132680488, 38.917683510418442 ], [ -77.055336317582316, 38.91900216208429 ], [ -77.054665737220901, 38.91988645613835 ], [ -77.051222035504722, 38.919780357881663 ], [ -77.050217122452324, 38.921305894974445 ], [ -77.048683194643743, 38.922470744065741 ], [ -77.04872819543958, 38.924517965782535 ], [ -77.049434749449219, 38.925534978647306 ], [ -77.049701450752394, 38.928073220189916 ], [ -77.049057095310872, 38.928058718812757 ], [ -77.046421919131888, 38.925979504669527 ], [ -77.044788883613009, 38.926710671504921 ], [ -77.044632846641704, 38.928697199921785 ], [ -77.046908479978228, 38.931287378417515 ], [ -77.050908026584167, 38.932803235338191 ], [ -77.048030461749164, 38.935059349232866 ], [ -77.047947009560787, 38.937059019255415 ], [ -77.050406194155912, 38.937194099982747 ], [ -77.051868463096639, 38.937617039465501 ], [ -77.052139900284885, 38.938138850512054 ], [ -77.051202392196203, 38.940378186913826 ], [ -77.051319286762634, 38.941422016691995 ], [ -77.049921497173159, 38.943576234061076 ], [ -77.047836078855468, 38.945679009647968 ], [ -77.045978384949208, 38.94551256132997 ], [ -77.044091715484839, 38.947889853415987 ], [ -77.044474355995916, 38.948600281617054 ], [ -77.045574587849217, 38.947775879448614 ], [ -77.046851450956083, 38.948229112768139 ], [ -77.04708168184078, 38.949584586136936 ], [ -77.045507578719437, 38.950689894523222 ], [ -77.044667716699493, 38.952308374819026 ], [ -77.042146422170461, 38.954739652402019 ], [ -77.042148180650585, 38.957713370521283 ], [ -77.040566769498639, 38.959827808605432 ], [ -77.041805456733897, 38.960149777864835 ], [ -77.043443363810468, 38.961371484270906 ], [ -77.045186721502034, 38.960578601271273 ], [ -77.047215243763546, 38.960393499726344 ], [ -77.048724700800392, 38.960735059132816 ], [ -77.050424602268649, 38.961818311016373 ], [ -77.051762522599802, 38.961909880825552 ], [ -77.056202878740891, 38.961020607428907 ], [ -77.056060678368254, 38.958681680856408 ], [ -77.057317826947511, 38.956833476298307 ], [ -77.0580817725277, 38.956759411657245 ] ] ] } },
{ "type": "Feature", "properties": { "WARD": 1 }, "geometry": { "type": "Polygon", "coordinates": [ [ [ -77.025305388148382, 38.935114096768366 ], [ -77.036448999829275, 38.937434852890789 ], [ -77.036447092300889, 38.938238510775022 ], [ -77.041157732085793, 38.936219421205443 ], [ -77.045354543310324, 38.935905189843091 ], [ -77.048299483059182, 38.934811987462851 ], [ -77.050879655072833, 38.93296611788616 ], [ -77.050414970149987, 38.93231491953096 ], [ -77.047041322266793, 38.931413162099219 ], [ -77.044511102125355, 38.92833994057856 ], [ -77.044788883613009, 38.926710671504921 ], [ -77.045995530019169, 38.925958819012003 ], [ -77.049057095310872, 38.928058718812757 ], [ -77.049852741243555, 38.927732641422416 ], [ -77.048538367301504, 38.923014204442318 ], [ -77.050217122452324, 38.921305894974445 ], [ -77.04883478883491, 38.918946695129662 ], [ -77.047571600660063, 38.918399014243711 ], [ -77.046397935367949, 38.916184138867315 ], [ -77.046168323327535, 38.914386787435355 ], [ -77.041225935662922, 38.917015619593947 ], [ -77.031953020644778, 38.917005578377498 ], [ -77.031953714279766, 38.914101579116114 ], [ -77.020872083827015, 38.914093976919332 ], [ -77.020660401689227, 38.915745873142441 ], [ -77.018111242500709, 38.914653494906766 ], [ -77.017782217276476, 38.913772593122481 ], [ -77.014273351342155, 38.914996136395587 ], [ -77.014937009723837, 38.920675833275844 ], [ -77.012150637742309, 38.921314125904487 ], [ -77.012144670045785, 38.926289782650642 ], [ -77.014781941890618, 38.926445142502686 ], [ -77.018243021406803, 38.928520619631968 ], [ -77.017959959095549, 38.929202953087049 ], [ -77.019166489837957, 38.934191111965958 ], [ -77.019035171751284, 38.937406015878565 ], [ -77.024299831850385, 38.936336295235762 ], [ -77.025305388148382, 38.935114096768366 ] ] ] } },
{ "type": "Feature", "properties": { "WARD": 7 }, "geometry": { "type": "Polygon", "coordinates": [ [ [ -76.941861811384356, 38.918543063352395 ], [ -76.946387682331576, 38.915117249878868 ], [ -76.952415289503108, 38.914824296337144 ], [ -76.953498873628845, 38.9143872876922 ], [ -76.954299317649699, 38.911155681129962 ], [ -76.95720893522244, 38.907467144480862 ], [ -76.959844190696117, 38.902587804626208 ], [ -76.962151141906617, 38.899838142543501 ], [ -76.961911265520911, 38.897071064640876 ], [ -76.969639358585326, 38.897721156176779 ], [ -76.983609848641933, 38.90016232190208 ], [ -76.983658366016499, 38.881086880962307 ], [ -76.979000781297799, 38.882981068580179 ], [ -76.976469161380848, 38.882752557821334 ], [ -76.976469594478644, 38.881439143795077 ], [ -76.970970639352217, 38.881428258574267 ], [ -76.973420221179637, 38.878381671842646 ], [ -76.977975600035009, 38.876857155919808 ], [ -76.976297129583642, 38.8748868526975 ], [ -76.972230168411571, 38.872726102026348 ], [ -76.970968190451842, 38.873311701682447 ], [ -76.970938590754898, 38.868742810792931 ], [ -76.970173005711445, 38.866782027115015 ], [ -76.970720538440176, 38.864051534953369 ], [ -76.968148950430148, 38.86022588672278 ], [ -76.967670978110405, 38.857536290116578 ], [ -76.96535612689874, 38.854417358422324 ], [ -76.962610961205243, 38.851962073787682 ], [ -76.961774622685851, 38.851942038450005 ], [ -76.909149955932705, 38.892931436468146 ], [ -76.941861811384356, 38.918543063352395 ] ] ] } }
]
}
